STARLINK-35749          
1 66879U 25283B   26052.53248909  .00030424  00000+0  10347-2 0  9990
2 66879  53.1584  98.9876 0001052  82.6538 277.4582 15.30214708 13371
STARLINK-35844          
1 66880U 25283C   26053.25625009  .00065984  00000+0  22179-2 0  9997
2 66880  53.1586  95.6836 0001428  68.6772 291.4381 15.30234606 13480
STARLINK-35860          
1 66881U 25283D   26053.11399159  .00013823  00000+0  47792-3 0  9991
2 66881  53.1605  96.2158 0001088  75.0398 285.0723 15.30201491 13468
STARLINK-35912          
1 66882U 25283E   26053.82201207  .00017198  00000+0  59128-3 0  9991
2 66882  53.1603  93.5258 0001330  86.2838 273.8314 15.30209188 13564
STARLINK-35947          
1 66883U 25283F   26053.81991418  .00024974  00000+0  85238-3 0  9992
2 66883  53.1604  93.5145 0001352  93.4048 266.7107 15.30204252 13588
STARLINK-36057          
1 66884U 25283G   26053.81357078  .00016628  00000+0  57207-3 0  9993
2 66884  53.1603  93.4727 0001415  90.2095 269.9068 15.30212361 13569
STARLINK-35954          
1 66885U 25283H   26053.81673817  .00020331  00000+0  69648-3 0  9994
2 66885  53.1606  93.4919 0001488  88.3401 271.7770 15.30208555 13566
STARLINK-35900          
1 66886U 25283J   26053.80617922  .00029131  00000+0  99102-3 0  9994
2 66886  53.1569  93.4263 0001028  80.3618 279.7499 15.30226113 13565
STARLINK-35925          
1 66887U 25283K   26053.28049864  .00008515  00000+0  29929-3 0  9994
2 66887  53.1588  95.8348 0001183  84.0521 276.0614 15.30200929 13480
STARLINK-35919          
1 66888U 25283L   26053.79984133  .00048839  00000+0  16478-2 0  9995
2 66888  53.1572  93.3864 0001377 100.8759 259.2397 15.30248028 13567
STARLINK-35852          
1 66889U 25283M   26053.40479989  .00014763  00000+0  50967-3 0  9993
2 66889  53.1581  95.1856 0001276  88.8043 271.3104 15.30193825 13507
STARLINK-35885          
1 66890U 25283N   26053.27100792  .00029385  00000+0  99975-3 0  9991
2 66890  53.1582  95.7725 0001047  85.6661 274.4460 15.30219001 13489
STARLINK-35855          
1 66891U 25283P   26053.52909679  .00031289  00000+0  10640-2 0  9998
2 66891  53.1580  94.5378 0001531  80.7895 279.3279 15.30202778 13522
STARLINK-35883          
1 66892U 25283Q   26053.26467200  .00028328  00000+0  96528-3 0  9999
2 66892  53.1591  95.7350 0001159  60.5473 299.5643 15.30187805 13489
STARLINK-36033          
1 66893U 25283R   26053.82939993  .00019227  00000+0  65937-3 0  9993
2 66893  53.1608  93.5709 0001212  78.1766 281.9370 15.30211587 13569
STARLINK-35718          
1 66894U 25283S   26053.51959922  .00015619  00000+0  53863-3 0  9990
2 66894  53.1589  94.4758 0001313  93.2440 266.8711 15.30183355 13529
