[{"OBJECT_NAME":"STARLINK-35749","OBJECT_ID":"2025-283B","EPOCH":"2026-02-21T12:46:47.057376","MEAN_MOTION":15.30214708,"ECCENTRICITY":0.0001052,"INCLINATION":53.1584,"RA_OF_ASC_NODE":98.9876,"ARG_OF_PERICENTER":82.6538,"MEAN_ANOMALY":277.4582,"EPHEMERIS_TYPE":0,"CLASSIFICATION_TYPE":"U","NORAD_CAT_ID":66879,"ELEMENT_SET_NO":999,"REV_AT_EPOCH":1337,"BSTAR":0.0010347,"MEAN_MOTION_DOT":0.00030424,"MEAN_MOTION_DDOT":0},{"OBJECT_NAME":"STARLINK-35844","OBJECT_ID":"2025-283C","EPOCH":"2026-02-22T06:09:00.007776","MEAN_MOTION":15.30234606,"ECCENTRICITY":0.0001428,"INCLINATION":53.1586,"RA_OF_ASC_NODE":95.6836,"ARG_OF_PERICENTER":68.6772,"MEAN_ANOMALY":291.4381,"EPHEMERIS_TYPE":0,"CLASSIFICATION_TYPE":"U","NORAD_CAT_ID":66880,"ELEMENT_SET_NO":999,"REV_AT_EPOCH":1348,"BSTAR":0.0022179,"MEAN_MOTION_DOT":0.00065984,"MEAN_MOTION_DDOT":0},{"OBJECT_NAME":"STARLINK-35860","OBJECT_ID":"2025-283D","EPOCH":"2026-02-22T02:44:08.873376","MEAN_MOTION":15.30201491,"ECCENTRICITY":0.0001088,"INCLINATION":53.1605,"RA_OF_ASC_NODE":96.2158,"ARG_OF_PERICENTER":75.0398,"MEAN_ANOMALY":285.0723,"EPHEMERIS_TYPE":0,"CLASSIFICATION_TYPE":"U","NORAD_CAT_ID":66881,"ELEMENT_SET_NO":999,"REV_AT_EPOCH":1346,"BSTAR":0.00047792,"MEAN_MOTION_DOT":0.00013823,"MEAN_MOTION_DDOT":0},{"OBJECT_NAME":"STARLINK-35912","OBJECT_ID":"2025-283E","EPOCH":"2026-02-22T19:43:41.842848","MEAN_MOTION":15.30209188,"ECCENTRICITY":0.000133,"INCLINATION":53.1603,"RA_OF_ASC_NODE":93.5258,"ARG_OF_PERICENTER":86.2838,"MEAN_ANOMALY":273.8314,"EPHEMERIS_TYPE":0,"CLASSIFICATION_TYPE":"U","NORAD_CAT_ID":66882,"ELEMENT_SET_NO":999,"REV_AT_EPOCH":1356,"BSTAR":0.00059128,"MEAN_MOTION_DOT":0.00017198,"MEAN_MOTION_DDOT":0},{"OBJECT_NAME":"STARLINK-35947","OBJECT_ID":"2025-283F","EPOCH":"2026-02-22T19:40:40.585152","MEAN_MOTION":15.30204252,"ECCENTRICITY":0.0001352,"INCLINATION":53.1604,"RA_OF_ASC_NODE":93.5145,"ARG_OF_PERICENTER":93.4048,"MEAN_ANOMALY":266.7107,"EPHEMERIS_TYPE":0,"CLASSIFICATION_TYPE":"U","NORAD_CAT_ID":66883,"ELEMENT_SET_NO":999,"REV_AT_EPOCH":1358,"BSTAR":0.00085238,"MEAN_MOTION_DOT":0.00024974,"MEAN_MOTION_DDOT":0},{"OBJECT_NAME":"STARLINK-36057","OBJECT_ID":"2025-283G","EPOCH":"2026-02-22T19:31:32.515392","MEAN_MOTION":15.30212361,"ECCENTRICITY":0.0001415,"INCLINATION":53.1603,"RA_OF_ASC_NODE":93.4727,"ARG_OF_PERICENTER":90.2095,"MEAN_ANOMALY":269.9068,"EPHEMERIS_TYPE":0,"CLASSIFICATION_TYPE":"U","NORAD_CAT_ID":66884,"ELEMENT_SET_NO":999,"REV_AT_EPOCH":1356,"BSTAR":0.00057207,"MEAN_MOTION_DOT":0.00016628,"MEAN_MOTION_DDOT":0},{"OBJECT_NAME":"STARLINK-35954","OBJECT_ID":"2025-283H","EPOCH":"2026-02-22T19:36:06.177888","MEAN_MOTION":15.30208555,"ECCENTRICITY":0.0001488,"INCLINATION":53.1606,"RA_OF_ASC_NODE":93.4919,"ARG_OF_PERICENTER":88.3401,"MEAN_ANOMALY":271.777,"EPHEMERIS_TYPE":0,"CLASSIFICATION_TYPE":"U","NORAD_CAT_ID":66885,"ELEMENT_SET_NO":999,"REV_AT_EPOCH":1356,"BSTAR":0.00069648,"MEAN_MOTION_DOT":0.00020331,"MEAN_MOTION_DDOT":0},{"OBJECT_NAME":"STARLINK-35900","OBJECT_ID":"2025-283J","EPOCH":"2026-02-22T19:20:53.884608","MEAN_MOTION":15.30226113,"ECCENTRICITY":0.0001028,"INCLINATION":53.1569,"RA_OF_ASC_NODE":93.4263,"ARG_OF_PERICENTER":80.3618,"MEAN_ANOMALY":279.7499,"EPHEMERIS_TYPE":0,"CLASSIFICATION_TYPE":"U","NORAD_CAT_ID":66886,"ELEMENT_SET_NO":999,"REV_AT_EPOCH":1356,"BSTAR":0.00099102,"MEAN_MOTION_DOT":0.00029131,"MEAN_MOTION_DDOT":0},{"OBJECT_NAME":"STARLINK-35925","OBJECT_ID":"2025-283K","EPOCH":"2026-02-22T06:43:55.082496","MEAN_MOTION":15.30200929,"ECCENTRICITY":0.0001183,"INCLINATION":53.1588,"RA_OF_ASC_NODE":95.8348,"ARG_OF_PERICENTER":84.0521,"MEAN_ANOMALY":276.0614,"EPHEMERIS_TYPE":0,"CLASSIFICATION_TYPE":"U","NORAD_CAT_ID":66887,"ELEMENT_SET_NO":999,"REV_AT_EPOCH":1348,"BSTAR":0.00029929,"MEAN_MOTION_DOT":8.515e-5,"MEAN_MOTION_DDOT":0},{"OBJECT_NAME":"STARLINK-35919","OBJECT_ID":"2025-283L","EPOCH":"2026-02-22T19:11:46.290912","MEAN_MOTION":15.30248028,"ECCENTRICITY":0.0001377,"INCLINATION":53.1572,"RA_OF_ASC_NODE":93.3864,"ARG_OF_PERICENTER":100.8759,"MEAN_ANOMALY":259.2397,"EPHEMERIS_TYPE":0,"CLASSIFICATION_TYPE":"U","NORAD_CAT_ID":66888,"ELEMENT_SET_NO":999,"REV_AT_EPOCH":1356,"BSTAR":0.0016478,"MEAN_MOTION_DOT":0.00048839,"MEAN_MOTION_DDOT":0},{"OBJECT_NAME":"STARLINK-35852","OBJECT_ID":"2025-283M","EPOCH":"2026-02-22T09:42:54.710496","MEAN_MOTION":15.30193825,"ECCENTRICITY":0.0001276,"INCLINATION":53.1581,"RA_OF_ASC_NODE":95.1856,"ARG_OF_PERICENTER":88.8043,"MEAN_ANOMALY":271.3104,"EPHEMERIS_TYPE":0,"CLASSIFICATION_TYPE":"U","NORAD_CAT_ID":66889,"ELEMENT_SET_NO":999,"REV_AT_EPOCH":1350,"BSTAR":0.00050967,"MEAN_MOTION_DOT":0.00014763,"MEAN_MOTION_DDOT":0},{"OBJECT_NAME":"STARLINK-35885","OBJECT_ID":"2025-283N","EPOCH":"2026-02-22T06:30:15.084288","MEAN_MOTION":15.30219001,"ECCENTRICITY":0.0001047,"INCLINATION":53.1582,"RA_OF_ASC_NODE":95.7725,"ARG_OF_PERICENTER":85.6661,"MEAN_ANOMALY":274.446,"EPHEMERIS_TYPE":0,"CLASSIFICATION_TYPE":"U","NORAD_CAT_ID":66890,"ELEMENT_SET_NO":999,"REV_AT_EPOCH":1348,"BSTAR":0.00099975,"MEAN_MOTION_DOT":0.00029385,"MEAN_MOTION_DDOT":0},{"OBJECT_NAME":"STARLINK-35855","OBJECT_ID":"2025-283P","EPOCH":"2026-02-22T12:41:53.962656","MEAN_MOTION":15.30202778,"ECCENTRICITY":0.0001531,"INCLINATION":53.158,"RA_OF_ASC_NODE":94.5378,"ARG_OF_PERICENTER":80.7895,"MEAN_ANOMALY":279.3279,"EPHEMERIS_TYPE":0,"CLASSIFICATION_TYPE":"U","NORAD_CAT_ID":66891,"ELEMENT_SET_NO":999,"REV_AT_EPOCH":1352,"BSTAR":0.001064,"MEAN_MOTION_DOT":0.00031289,"MEAN_MOTION_DDOT":0},{"OBJECT_NAME":"STARLINK-35883","OBJECT_ID":"2025-283Q","EPOCH":"2026-02-22T06:21:07.660800","MEAN_MOTION":15.30187805,"ECCENTRICITY":0.0001159,"INCLINATION":53.1591,"RA_OF_ASC_NODE":95.735,"ARG_OF_PERICENTER":60.5473,"MEAN_ANOMALY":299.5643,"EPHEMERIS_TYPE":0,"CLASSIFICATION_TYPE":"U","NORAD_CAT_ID":66892,"ELEMENT_SET_NO":999,"REV_AT_EPOCH":1348,"BSTAR":0.00096528,"MEAN_MOTION_DOT":0.00028328,"MEAN_MOTION_DDOT":0},{"OBJECT_NAME":"STARLINK-36033","OBJECT_ID":"2025-283R","EPOCH":"2026-02-22T19:54:20.153952","MEAN_MOTION":15.30211587,"ECCENTRICITY":0.0001212,"INCLINATION":53.1608,"RA_OF_ASC_NODE":93.5709,"ARG_OF_PERICENTER":78.1766,"MEAN_ANOMALY":281.937,"EPHEMERIS_TYPE":0,"CLASSIFICATION_TYPE":"U","NORAD_CAT_ID":66893,"ELEMENT_SET_NO":999,"REV_AT_EPOCH":1356,"BSTAR":0.00065937,"MEAN_MOTION_DOT":0.00019227,"MEAN_MOTION_DDOT":0},{"OBJECT_NAME":"STARLINK-35718","OBJECT_ID":"2025-283S","EPOCH":"2026-02-22T12:28:13.372608","MEAN_MOTION":15.30183355,"ECCENTRICITY":0.0001313,"INCLINATION":53.1589,"RA_OF_ASC_NODE":94.4758,"ARG_OF_PERICENTER":93.244,"MEAN_ANOMALY":266.8711,"EPHEMERIS_TYPE":0,"CLASSIFICATION_TYPE":"U","NORAD_CAT_ID":66894,"ELEMENT_SET_NO":999,"REV_AT_EPOCH":1352,"BSTAR":0.00053863,"MEAN_MOTION_DOT":0.00015619,"MEAN_MOTION_DDOT":0}]
